     2.11           N: GPS NAV DATA                         RINEX VERSION / TYPE
MAKERINEX 1.140     AAU/NTRIPS05        2012-04-22 20:01    PGM / RUN BY / DATE
    2.5146D-08  1.4901D-08 -1.1921D-07 -5.9605D-08          ION ALPHA
    1.2902D+05  4.9152D+04 -2.6214D+05  1.9661D+05          ION BETA
   -2.793967723846D-09-6.217248937901D-15   233472     1685 DELTA-UTC: A0,A1,T,W
    15                                                      LEAP SECONDS
                                                            END OF HEADER
 2 12  4 22 20  0  0.0 3.876364789903D-04 1.364242052659D-12 0.000000000000D+00
    2.800000000000D+01-3.959375000000D+01 4.934848413387D-09-2.216826862251D+00
   -2.084299921989D-06 1.116448675748D-02 8.339062333107D-06 5.153681600571D+03
    7.200000000000D+04-2.048909664154D-08-6.191684263702D-01-1.899898052216D-07
    9.387805275200D-01 2.066562500000D+02-2.806191694542D+00-8.116409509606D-09
   -3.417999516257D-10 1.000000000000D+00 1.685000000000D+03 0.000000000000D+00
    2.000000000000D+00 0.000000000000D+00-1.722946763039D-08 2.800000000000D+01
    6.480000000000D+04 0.000000000000D+00
 4 12  4 22 20  0  0.0 1.613898202777D-04 1.148237060988D-11 0.000000000000D+00
    1.020000000000D+02-3.450000000000D+01 5.079497295737D-09 9.259899158368D-01
   -1.640990376472D-06 9.988989331760D-03 8.115544915199D-06 5.153586517334D+03
    7.200000000000D+04-1.750886440277D-07-6.022244351907D-01 0.000000000000D+00
    9.378539971320D-01 2.145625000000D+02 8.478487405775D-01-8.341061724415D-09
   -5.893102614235D-10 1.000000000000D+00 1.685000000000D+03 0.000000000000D+00
    2.900000000000D+00 0.000000000000D+00-6.053596735001D-09 1.020000000000D+02
    6.480000000000D+04 0.000000000000D+00
 5 12  4 22 20  0  0.0-3.077392466366D-04-3.979039320257D-12 0.000000000000D+00
    3.900000000000D+01 8.762500000000D+01 4.420184118411D-09-2.061853462073D-01
    4.708766937256D-06 2.665657666512D-03 9.942799806595D-06 5.153653455734D+03
    7.200000000000D+04 3.352761268616D-08 4.435568815931D-01-9.313225746155D-09
    9.517081926834D-01 1.816562500000D+02 2.677460039872D-01-7.994975879979D-09
    1.282196265764D-10 1.000000000000D+00 1.685000000000D+03 0.000000000000D+00
    2.000000000000D+00 0.000000000000D+00-1.024454832077D-08 3.900000000000D+01
    6.480000000000D+04 0.000000000000D+00
 9 12  4 22 20  0  0.0 1.532705500722D-04 2.501110429876D-12 0.000000000000D+00
    8.600000000000D+01-1.091562500000D+02 3.934449599904D-09 1.957593729248D+00
   -5.975365638733D-06 1.740885921754D-02 5.561858415604D-06 5.153629930496D+03
    7.200000000000D+04 2.291053533554D-07 2.528738818019D+00-2.253800630569D-07
    9.846031316211D-01 2.816250000000D+02 1.608963356239D+00-7.669605184127D-09
   -3.614436270064D-10 1.000000000000D+00 1.685000000000D+03 0.000000000000D+00
    4.000000000000D+00 0.000000000000D+00-5.587935447693D-09 8.600000000000D+01
    6.480000000000D+04 0.000000000000D+00
12 12  4 22 20  0  0.0 6.496114656329D-05 2.046363078989D-12 0.000000000000D+00
    8.000000000000D+00-1.653125000000D+01 3.837659853937D-09 2.469504556937D+00
   -9.313225746155D-07 4.008565330878D-03 1.134909689426D-05 5.153532978058D+03
    7.200000000000D+04-9.126961231232D-08-2.672868640759D+00 3.166496753693D-08
    9.795910440818D-01 1.702500000000D+02 6.964162999628D-03-7.542814188487D-09
    2.817974522807D-10 1.000000000000D+00 1.685000000000D+03 0.000000000000D+00
    2.000000000000D+00 0.000000000000D+00-1.210719347000D-08 8.000000000000D+00
    6.480000000000D+04 0.000000000000D+00
15 12  4 22 20  0  0.0-9.135948494077D-05 1.136868377216D-13 0.000000000000D+00
    5.100000000000D+01 5.362500000000D+01 5.207002606845D-09-1.696725833567D+00
    2.576038241386D-06 4.368101828732D-03 1.560896635056D-06 5.153546360016D+03
    7.200000000000D+04 5.029141902924D-08 1.470457602096D+00-6.332993507385D-08
    9.455588838315D-01 3.415312500000D+02 5.277520273331D-02-8.634645381925D-09
    2.414386283166D-10 1.000000000000D+00 1.685000000000D+03 0.000000000000D+00
    2.000000000000D+00 0.000000000000D+00-1.024454832077D-08 5.100000000000D+01
    6.480000000000D+04 0.000000000000D+00
26 12  4 22 20  0  0.0-3.394465893507D-04-5.275069270283D-11 0.000000000000D+00
    2.200000000000D+01 3.234375000000D+01 4.274820920593D-09-2.239940198409D+00
    1.639127731323D-06 2.096605044790D-02 1.043081283569D-06 5.153661809921D+03
    7.200000000000D+04 2.831220626831D-07 1.577732670944D+00 3.166496753693D-08
    9.833492528320D-01 3.658750000000D+02 1.189051495213D+00-7.916758336190D-09
    3.203704875739D-10 1.000000000000D+00 1.685000000000D+03 0.000000000000D+00
    2.000000000000D+00 0.000000000000D+00-6.053596735001D-09 2.200000000000D+01
    6.480000000000D+04 0.000000000000D+00
27 12  4 22 20  0  0.0 3.802254796028D-04 3.979039320257D-12 0.000000000000D+00
    1.500000000000D+01-9.684375000000D+01 4.174816755018D-09-1.329846084170D+00
   -4.960224032402D-06 2.174054749776D-02 6.482005119324D-06 5.153746076584D+03
    7.200000000000D+04-5.010515451431D-07 2.501966785188D+00-7.450580596924D-09
    9.820492818830D-01 2.709687500000D+02-1.094360937760D+00-8.208913362763D-09
   -2.157232714544D-10 1.000000000000D+00 1.685000000000D+03 0.000000000000D+00
    2.000000000000D+00 0.000000000000D+00-4.190951585770D-09 1.500000000000D+01
    6.480000000000D+04 0.000000000000D+00
29 12  4 22 20  0  0.0 3.058882430196D-04 3.751665644813D-12 0.000000000000D+00
    1.400000000000D+01 1.478125000000D+01 4.824129515787D-09 1.940046651553D+00
    7.040798664093D-07 2.327324822545D-03 4.770234227180D-06 5.153587068558D+03
    7.200000000000D+04 5.587935447693D-08-1.605482674752D+00 2.980232238770D-08
    9.628231048527D-01 2.879062500000D+02-1.154615006350D+00-8.138910446860D-09
    1.450060400836D-10 1.000000000000D+00 1.685000000000D+03 0.000000000000D+00
    2.000000000000D+00 0.000000000000D+00-9.313225746155D-09 1.400000000000D+01
    6.480000000000D+04 0.000000000000D+00
25 12  4 22 19 59 44.0 3.324029967189D-05 3.410605131648D-13 0.000000000000D+00
    5.000000000000D+00-1.931250000000D+01 4.142672558940D-09 1.221032683815D+00
   -9.499490261078D-07 1.556765637361D-03 1.121498644352D-05 5.153731559753D+03
    7.198400000000D+04-2.793967723846D-08-2.706522298752D+00 2.607703208923D-08
    9.684507853939D-01 1.662812500000D+02 6.273591349976D-01-7.739965257763D-09
    2.771544017362D-10 1.000000000000D+00 1.685000000000D+03 0.000000000000D+00
    2.000000000000D+00 0.000000000000D+00 5.587935447693D-09 5.000000000000D+00
    6.495000000000D+04 0.000000000000D+00
 9 12  4 22 19 59 44.0 1.532793976367D-04 2.614797267597D-12 0.000000000000D+00
    5.000000000000D+00-1.091562500000D+02 3.934806757638D-09 1.955259314296D+00
   -5.975365638733D-06 1.740886503831D-02 5.561858415604D-06 5.153629926682D+03
    7.198400000000D+04 2.291053533554D-07 2.528738964311D+00-2.253800630569D-07
    9.846031330840D-01 2.816250000000D+02 1.608964039422D+00-7.669605184127D-09
   -3.618007847406D-10 1.000000000000D+00 1.685000000000D+03 0.000000000000D+00
    2.000000000000D+00 0.000000000000D+00-5.587935447693D-09 5.000000000000D+00
    6.528000000000D+04 0.000000000000D+00
10 12  4 22 20  0  0.0-3.616791218519D-05-1.136868377216D-12 0.000000000000D+00
    3.000000000000D+01 8.412500000000D+01 4.679123475703D-09 1.172439251429D-01
    4.500150680542D-06 1.124052400701D-02 9.970739483833D-06 5.153697744370D+03
    7.200000000000D+04 2.421438694000D-08 4.653135440968D-01 1.881271600723D-07
    9.465824949261D-01 1.824062500000D+02 7.508681457922D-01-8.206056100889D-09
    9.536111503035D-11 1.000000000000D+00 1.685000000000D+03 0.000000000000D+00
    2.000000000000D+00 0.000000000000D+00-2.328306436539D-09 3.000000000000D+01
    6.687000000000D+04 0.000000000000D+00
 4 12  4 22 19 59 44.0 1.613898202777D-04 1.148237060988D-11 0.000000000000D+00
    1.000000000000D+00-3.450000000000D+01 5.079140138003D-09 9.236560948295D-01
   -1.640990376472D-06 9.988992358558D-03 8.115544915199D-06 5.153586526871D+03
    7.198400000000D+04-1.750886440277D-07-6.022243210831D-01 0.000000000000D+00
    9.378540015208D-01 2.145625000000D+02 8.478486118407D-01-8.341061724415D-09
   -5.893102614235D-10 1.000000000000D+00 1.685000000000D+03 0.000000000000D+00
    2.000000000000D+00 0.000000000000D+00-6.053596735001D-09 1.000000000000D+00
    6.720000000000D+04 0.000000000000D+00
21 12  4 22 20  0  0.0-2.190005034208D-04-2.501110429876D-12 0.000000000000D+00
    1.280000000000D+02-3.453125000000D+01 5.188073246932D-09 1.681108615459D+00
   -1.879408955574D-06 1.902670459822D-02 8.881092071533D-06 5.153624551773D+03
    7.200000000000D+04-4.377216100693D-07-5.960088912598D-01-1.005828380585D-07
    9.315514315191D-01 1.985000000000D+02-2.263350879980D+00-8.375348866898D-09
   -5.593090117511D-10 1.000000000000D+00 1.685000000000D+03 0.000000000000D+00
    2.000000000000D+00 0.000000000000D+00-1.117587089539D-08 1.280000000000D+02
    6.894000000000D+04 0.000000000000D+00
18 12  4 22 19 59 44.0 1.922501251101D-04 1.818989403546D-12 0.000000000000D+00
    4.000000000000D+00 9.821875000000D+01 5.035566894431D-09 6.209119745617D-01
    5.099922418594D-06 1.312816410791D-02 9.603798389435D-06 5.153693155289D+03
    7.198400000000D+04-1.844018697739D-07 4.546541275636D-01 1.024454832077D-07
    9.304137011110D-01 1.797500000000D+02-2.185823204287D+00-8.408207378444D-09
   -2.142946405177D-12 1.000000000000D+00 1.685000000000D+03 0.000000000000D+00
    2.000000000000D+00 0.000000000000D+00-1.071020960808D-08 4.000000000000D+00
    7.194000000000D+04 0.000000000000D+00
